1 40996U 97051ABJ 26110.30617049  .00020553  00000+0  13394-2 0  9996
2 40996  86.3437 300.7606 0004303 299.3110 181.5769 15.07801729644188
